STARLINK-4576           
1 53566U 22101AR  25222.17380430  .00002097  00000+0  14973-3 0  9994
2 53566  53.2186 283.6407 0001211  92.9118 267.2013 15.08854892165202
STARLINK-4585           
1 53567U 22101AS  25223.17845415 -.00001006  00000+0 -45102-4 0  9995
2 53567  53.2155 279.2482 0001295  89.8812 270.2329 15.08835999164661
STARLINK-4583           
1 53568U 22101AT  25223.15636182 -.00000937  00000+0 -40814-4 0  9990
2 53568  53.2179 279.1115 0000843  97.2815 262.8273 15.08822990165353
STARLINK-4582           
1 53569U 22101AU  25222.57492134 -.00000402  00000+0 -71828-5 0  9990
2 53569  53.2167 281.8816 0001373  82.5045 277.6103 15.08837816164572
STARLINK-4550           
1 53570U 22101AV  25223.16004754 -.00002050  00000+0 -11083-3 0  9991
2 53570  53.2207 279.1341 0001001  69.4438 290.6662 15.08827099165354
STARLINK-4584           
1 53571U 22101AW  25223.16371330 -.00000227  00000+0  38465-5 0  9997
2 53571  53.2177 279.1575 0001360  80.8513 279.2633 15.08840123165353
STARLINK-4555           
1 53572U 22101AX  25222.87296474 -.00000154  00000+0  83883-5 0  9993
2 53572  53.2176 280.1917 0001197  75.0502 285.0622 15.08836307164628
STARLINK-4547           
1 53573U 22101AY  25223.15265782 -.00000193  00000+0  59504-5 0  9990
2 53573  53.2176 279.0900 0001328  85.6899 274.4245 15.08841722164664
STARLINK-4559           
1 53574U 22101AZ  25222.87665205  .00000923  00000+0  76067-4 0  9995
2 53574  53.2174 280.2121 0001475  80.9027 279.2132 15.08829828164623
STARLINK-4551           
1 53575U 22101BA  25223.14897415 -.00002312  00000+0 -12723-3 0  9991
2 53575  53.2172 279.0667 0001318  78.9145 281.1996 15.08841692165351
STARLINK-4581           
1 53576U 22101BB  25223.21617374  .00001293  00000+0  99346-4 0  9996
2 53576  53.2169 278.7725 0001482  85.4418 274.6743 15.08827039165498
STARLINK-4553           
1 53577U 22101BC  25222.88033394  .00001477  00000+0  11085-3 0  9990
2 53577  53.2171 280.2325 0001282  84.7212 275.3927 15.08845768165444
STARLINK-4556           
1 53578U 22101BD  25222.60431355  .00000237  00000+0  32958-4 0  9996
2 53578  53.2161 281.3559 0001116  89.4657 270.6463 15.08836214164589
STARLINK-4580           
1 53579U 22101BE  25222.46815684 -.00001254  00000+0 -60757-4 0  9992
2 53579  53.2164 281.9256 0001233  71.5045 288.6081 15.08831575164564
STARLINK-4691           
1 53588U 22104A   25223.12788008 -.00001680  00000+0 -87527-4 0  9995
2 53588  53.2177 109.6194 0001424  84.9424 275.1731 15.08830723164305
STARLINK-4673           
1 53589U 22104B   25222.97697542 -.00000364  00000+0 -47738-5 0  9999
2 53589  53.2171 110.0977 0001447  89.0706 271.0452 15.08834897164131
