[{"OBJECT_NAME":"STARLINK-4576","OBJECT_ID":"2022-101AR","EPOCH":"2025-08-10T04:10:16.691520","MEAN_MOTION":15.08854892,"ECCENTRICITY":0.0001211,"INCLINATION":53.2186,"RA_OF_ASC_NODE":283.6407,"ARG_OF_PERICENTER":92.9118,"MEAN_ANOMALY":267.2013,"EPHEMERIS_TYPE":0,"CLASSIFICATION_TYPE":"U","NORAD_CAT_ID":53566,"ELEMENT_SET_NO":999,"REV_AT_EPOCH":16520,"BSTAR":0.00014973,"MEAN_MOTION_DOT":2.097e-5,"MEAN_MOTION_DDOT":0},{"OBJECT_NAME":"STARLINK-4585","OBJECT_ID":"2022-101AS","EPOCH":"2025-08-11T04:16:58.438560","MEAN_MOTION":15.08835999,"ECCENTRICITY":0.0001295,"INCLINATION":53.2155,"RA_OF_ASC_NODE":279.2482,"ARG_OF_PERICENTER":89.8812,"MEAN_ANOMALY":270.2329,"EPHEMERIS_TYPE":0,"CLASSIFICATION_TYPE":"U","NORAD_CAT_ID":53567,"ELEMENT_SET_NO":999,"REV_AT_EPOCH":16466,"BSTAR":-4.5102e-5,"MEAN_MOTION_DOT":-1.006e-5,"MEAN_MOTION_DDOT":0},{"OBJECT_NAME":"STARLINK-4583","OBJECT_ID":"2022-101AT","EPOCH":"2025-08-11T03:45:09.661248","MEAN_MOTION":15.0882299,"ECCENTRICITY":8.43e-5,"INCLINATION":53.2179,"RA_OF_ASC_NODE":279.1115,"ARG_OF_PERICENTER":97.2815,"MEAN_ANOMALY":262.8273,"EPHEMERIS_TYPE":0,"CLASSIFICATION_TYPE":"U","NORAD_CAT_ID":53568,"ELEMENT_SET_NO":999,"REV_AT_EPOCH":16535,"BSTAR":-4.0814e-5,"MEAN_MOTION_DOT":-9.37e-6,"MEAN_MOTION_DDOT":0},{"OBJECT_NAME":"STARLINK-4582","OBJECT_ID":"2022-101AU","EPOCH":"2025-08-10T13:47:53.203776","MEAN_MOTION":15.08837816,"ECCENTRICITY":0.0001373,"INCLINATION":53.2167,"RA_OF_ASC_NODE":281.8816,"ARG_OF_PERICENTER":82.5045,"MEAN_ANOMALY":277.6103,"EPHEMERIS_TYPE":0,"CLASSIFICATION_TYPE":"U","NORAD_CAT_ID":53569,"ELEMENT_SET_NO":999,"REV_AT_EPOCH":16457,"BSTAR":-7.1828e-6,"MEAN_MOTION_DOT":-4.02e-6,"MEAN_MOTION_DDOT":0},{"OBJECT_NAME":"STARLINK-4550","OBJECT_ID":"2022-101AV","EPOCH":"2025-08-11T03:50:28.107456","MEAN_MOTION":15.08827099,"ECCENTRICITY":0.0001001,"INCLINATION":53.2207,"RA_OF_ASC_NODE":279.1341,"ARG_OF_PERICENTER":69.4438,"MEAN_ANOMALY":290.6662,"EPHEMERIS_TYPE":0,"CLASSIFICATION_TYPE":"U","NORAD_CAT_ID":53570,"ELEMENT_SET_NO":999,"REV_AT_EPOCH":16535,"BSTAR":-0.00011083,"MEAN_MOTION_DOT":-2.05e-5,"MEAN_MOTION_DDOT":0},{"OBJECT_NAME":"STARLINK-4584","OBJECT_ID":"2022-101AW","EPOCH":"2025-08-11T03:55:44.829120","MEAN_MOTION":15.08840123,"ECCENTRICITY":0.000136,"INCLINATION":53.2177,"RA_OF_ASC_NODE":279.1575,"ARG_OF_PERICENTER":80.8513,"MEAN_ANOMALY":279.2633,"EPHEMERIS_TYPE":0,"CLASSIFICATION_TYPE":"U","NORAD_CAT_ID":53571,"ELEMENT_SET_NO":999,"REV_AT_EPOCH":16535,"BSTAR":3.8465e-6,"MEAN_MOTION_DOT":-2.27e-6,"MEAN_MOTION_DDOT":0},{"OBJECT_NAME":"STARLINK-4555","OBJECT_ID":"2022-101AX","EPOCH":"2025-08-10T20:57:04.153536","MEAN_MOTION":15.08836307,"ECCENTRICITY":0.0001197,"INCLINATION":53.2176,"RA_OF_ASC_NODE":280.1917,"ARG_OF_PERICENTER":75.0502,"MEAN_ANOMALY":285.0622,"EPHEMERIS_TYPE":0,"CLASSIFICATION_TYPE":"U","NORAD_CAT_ID":53572,"ELEMENT_SET_NO":999,"REV_AT_EPOCH":16462,"BSTAR":8.3883e-6,"MEAN_MOTION_DOT":-1.54e-6,"MEAN_MOTION_DDOT":0},{"OBJECT_NAME":"STARLINK-4547","OBJECT_ID":"2022-101AY","EPOCH":"2025-08-11T03:39:49.635648","MEAN_MOTION":15.08841722,"ECCENTRICITY":0.0001328,"INCLINATION":53.2176,"RA_OF_ASC_NODE":279.09,"ARG_OF_PERICENTER":85.6899,"MEAN_ANOMALY":274.4245,"EPHEMERIS_TYPE":0,"CLASSIFICATION_TYPE":"U","NORAD_CAT_ID":53573,"ELEMENT_SET_NO":999,"REV_AT_EPOCH":16466,"BSTAR":5.9504e-6,"MEAN_MOTION_DOT":-1.93e-6,"MEAN_MOTION_DDOT":0},{"OBJECT_NAME":"STARLINK-4559","OBJECT_ID":"2022-101AZ","EPOCH":"2025-08-10T21:02:22.737120","MEAN_MOTION":15.08829828,"ECCENTRICITY":0.0001475,"INCLINATION":53.2174,"RA_OF_ASC_NODE":280.2121,"ARG_OF_PERICENTER":80.9027,"MEAN_ANOMALY":279.2132,"EPHEMERIS_TYPE":0,"CLASSIFICATION_TYPE":"U","NORAD_CAT_ID":53574,"ELEMENT_SET_NO":999,"REV_AT_EPOCH":16462,"BSTAR":7.6067e-5,"MEAN_MOTION_DOT":9.23e-6,"MEAN_MOTION_DDOT":0},{"OBJECT_NAME":"STARLINK-4551","OBJECT_ID":"2022-101BA","EPOCH":"2025-08-11T03:34:31.366560","MEAN_MOTION":15.08841692,"ECCENTRICITY":0.0001318,"INCLINATION":53.2172,"RA_OF_ASC_NODE":279.0667,"ARG_OF_PERICENTER":78.9145,"MEAN_ANOMALY":281.1996,"EPHEMERIS_TYPE":0,"CLASSIFICATION_TYPE":"U","NORAD_CAT_ID":53575,"ELEMENT_SET_NO":999,"REV_AT_EPOCH":16535,"BSTAR":-0.00012723,"MEAN_MOTION_DOT":-2.312e-5,"MEAN_MOTION_DDOT":0},{"OBJECT_NAME":"STARLINK-4581","OBJECT_ID":"2022-101BB","EPOCH":"2025-08-11T05:11:17.411136","MEAN_MOTION":15.08827039,"ECCENTRICITY":0.0001482,"INCLINATION":53.2169,"RA_OF_ASC_NODE":278.7725,"ARG_OF_PERICENTER":85.4418,"MEAN_ANOMALY":274.6743,"EPHEMERIS_TYPE":0,"CLASSIFICATION_TYPE":"U","NORAD_CAT_ID":53576,"ELEMENT_SET_NO":999,"REV_AT_EPOCH":16549,"BSTAR":9.9346e-5,"MEAN_MOTION_DOT":1.293e-5,"MEAN_MOTION_DDOT":0},{"OBJECT_NAME":"STARLINK-4553","OBJECT_ID":"2022-101BC","EPOCH":"2025-08-10T21:07:40.852416","MEAN_MOTION":15.08845768,"ECCENTRICITY":0.0001282,"INCLINATION":53.2171,"RA_OF_ASC_NODE":280.2325,"ARG_OF_PERICENTER":84.7212,"MEAN_ANOMALY":275.3927,"EPHEMERIS_TYPE":0,"CLASSIFICATION_TYPE":"U","NORAD_CAT_ID":53577,"ELEMENT_SET_NO":999,"REV_AT_EPOCH":16544,"BSTAR":0.00011085,"MEAN_MOTION_DOT":1.477e-5,"MEAN_MOTION_DDOT":0},{"OBJECT_NAME":"STARLINK-4556","OBJECT_ID":"2022-101BD","EPOCH":"2025-08-10T14:30:12.690720","MEAN_MOTION":15.08836214,"ECCENTRICITY":0.0001116,"INCLINATION":53.2161,"RA_OF_ASC_NODE":281.3559,"ARG_OF_PERICENTER":89.4657,"MEAN_ANOMALY":270.6463,"EPHEMERIS_TYPE":0,"CLASSIFICATION_TYPE":"U","NORAD_CAT_ID":53578,"ELEMENT_SET_NO":999,"REV_AT_EPOCH":16458,"BSTAR":3.2958e-5,"MEAN_MOTION_DOT":2.37e-6,"MEAN_MOTION_DDOT":0},{"OBJECT_NAME":"STARLINK-4580","OBJECT_ID":"2022-101BE","EPOCH":"2025-08-10T11:14:08.750976","MEAN_MOTION":15.08831575,"ECCENTRICITY":0.0001233,"INCLINATION":53.2164,"RA_OF_ASC_NODE":281.9256,"ARG_OF_PERICENTER":71.5045,"MEAN_ANOMALY":288.6081,"EPHEMERIS_TYPE":0,"CLASSIFICATION_TYPE":"U","NORAD_CAT_ID":53579,"ELEMENT_SET_NO":999,"REV_AT_EPOCH":16456,"BSTAR":-6.0757e-5,"MEAN_MOTION_DOT":-1.254e-5,"MEAN_MOTION_DDOT":0},{"OBJECT_NAME":"STARLINK-4691","OBJECT_ID":"2022-104A","EPOCH":"2025-08-11T03:04:08.838912","MEAN_MOTION":15.08830723,"ECCENTRICITY":0.0001424,"INCLINATION":53.2177,"RA_OF_ASC_NODE":109.6194,"ARG_OF_PERICENTER":84.9424,"MEAN_ANOMALY":275.1731,"EPHEMERIS_TYPE":0,"CLASSIFICATION_TYPE":"U","NORAD_CAT_ID":53588,"ELEMENT_SET_NO":999,"REV_AT_EPOCH":16430,"BSTAR":-8.7527e-5,"MEAN_MOTION_DOT":-1.68e-5,"MEAN_MOTION_DDOT":0},{"OBJECT_NAME":"STARLINK-4673","OBJECT_ID":"2022-104B","EPOCH":"2025-08-10T23:26:50.676288","MEAN_MOTION":15.08834897,"ECCENTRICITY":0.0001447,"INCLINATION":53.2171,"RA_OF_ASC_NODE":110.0977,"ARG_OF_PERICENTER":89.0706,"MEAN_ANOMALY":271.0452,"EPHEMERIS_TYPE":0,"CLASSIFICATION_TYPE":"U","NORAD_CAT_ID":53589,"ELEMENT_SET_NO":999,"REV_AT_EPOCH":16413,"BSTAR":-4.7738e-6,"MEAN_MOTION_DOT":-3.64e-6,"MEAN_MOTION_DDOT":0}]
